ONEWEB-0706             
1 61611U 24188T   25308.41571690 -.00000175  00000+0 -53738-3 0  9992
2 61611  87.8788  81.0767 0001950  79.6451 280.4896 13.10376069 53943
ONEWEB-0707             
1 61612U 24188U   25308.34600862  .00000151  00000+0  39546-3 0  9992
2 61612  87.8802  81.0627 0002028  83.0642 277.0716 13.10376076 53877
ONEWEB-0708             
1 61613U 24188V   25308.44062796  .00001731  00000+0  49228-2 0  9994
2 61613  87.8779  81.0837 0001208  78.1093 282.0170 13.10366969 53867
